#dP2023 11 27  0  0  0.00000000     289 d+D   IGS20 FIT AIUB
## 2290  86400.00000000   300.00000000 60275 0.0000000000000
+  119   G01G02G03G04G05G06G07G08G09G10G11G12G13G14G15G16G17
+        G18G19G20G21G22G23G24G25G26G27G28G29G30G31G32R01R02
+        R03R04R05R07R08R09R11R12R13R14R15R16R17R18R19R20R21
+        R22R24R25R26E02E03E04E05E07E08E09E10E11E12E13E15E18
+        E19E21E24E25E26E27E30E31E33E34E36C06C07C08C09C10C11
+        C12C13C14C16C19C20C21C22C23C24C25C26C27C28C29C30C32
+        C33C34C35C36C37C38C39C40C41C42C43C44C45C46J02J03J04
++         5  5  5  5  5  5  5  5  5  5  5  5  5  5  5  5  5
++         5  5  5  5  5  5  5  5  5  5  5  5  5  5  5  5  5
++         5  5  5  5  5  5  5  5  5  5  5  5  5  5  5  5  5
++         5  5  5  5  5  5  5  5  5  5  5  5  5  5  5  5  5
++         5  5  5  5  5  5  5  5  5  5  5  5  5  6  5  5  5
++         5  5  5  5  5  5  5  5 10  5  5  5  5  5  5  5  5
++         5  5  5  5  5  5  5  5  5  5  5  5  5  5  5  5  5
%c M  cc GPS ccc cccc cccc cccc cccc ccccc ccccc ccccc ccccc
%c cc cc ccc ccc cccc cccc cccc cccc ccccc ccccc ccccc ccccc
%f  1.2500000  1.025000000  0.00000000000  0.000000000000000
%f  0.0000000  0.000000000  0.00000000000  0.000000000000000
%i    0    0    0    0      0      0      0      0         0
%i    0    0    0    0      0      0      0      0         0
/* Center for Orbit Determination in Europe (CODE)                              
/* MGEX orbits and clocks for year-day 2023-3310                                
/* Middle day of a 3-day long-arc multi-GNSS solution                           
/* Systems considered: GPS/GLONASS/Galileo/BeiDou/QZSS                          
/* Product reference - DOI 10.7892/boris.75882.3                                
/* PCV:IGS20      OL/AL:FES2014b NONE     YN ORB:CoN CLK:CoN                    
*  2023 11 27  4 35  0.00000000
PG01  19587.143810  11471.565690  13725.963408    163.361409
PG02  20985.998909  14293.854156   8648.660215   -523.521289
PG03  14947.420350   1837.909522  21720.014409     13.457146
PG04  25933.355009   1589.178182   5841.861776    223.965478
PG05  -9074.074854 -15203.355162 -19949.361279   -151.921673
PG06  -2274.330082 -20888.983038  16257.772211    494.883126
PG07  14592.101796  -5667.688922 -21030.051595      2.921605
PG08  22042.182281   6322.046345 -13832.889521   -154.066479
PG09  25100.495186  -7366.175627  -4869.790528      9.178707
PG10 -10680.494560  24091.515769   -964.815350    -62.993033
PG11 -11015.101089 -23412.908527   6138.630152   -477.178684
PG12 -14621.194821  -4110.675735  21506.891973   -451.335855
PG13 -13164.683002 -13254.736747 -19165.046759    599.608585
PG14  13503.467796 -22317.198488  -4454.029342    254.700764
PG15 -22534.308502  -4386.793970 -14026.294434    101.162126
PG16   3252.465266  19876.839499 -17392.208115   -414.845487
PG17  15883.662221 -12991.362291  17371.987923    722.802193
PG18 -13059.949783   7362.627253 -21918.148954   -490.540702
PG19   6505.837115 -14536.692037  21000.453884    404.503103
PG20  -2268.641708 -24327.823271 -10585.390208    399.576690
PG21  20606.808671  16825.641405   5473.452919    143.184184
PG22  10094.442387 -24537.582781   3571.233439     76.494178
PG23 -15780.513517  16874.794539 -12920.088759    105.845174
PG24 -21142.770964 -14062.033077   8082.203393   -380.601514
PG25 -17151.558917   9551.593718  17435.397165    479.128330
PG26  -1461.496092  24914.751959  -8675.443201    213.739499
PG27   9764.784478  13413.005221 -21086.436077    -75.456106
PG28    967.666587  20158.129080  17243.525974    -55.610569
PG29 -25858.797408   4464.587756  -4492.576781   -610.095076
PG30   6694.543842 -15749.404384 -20129.985562   -463.886608
PG31   7433.187238  22876.556637  10584.951138   -226.098779
PG32 -11301.669901  14956.379605  18917.137297   -590.308931
PR01 -20856.641004  14415.246224   2828.651637     70.730066
PR02  -9160.950833  15076.050023  18430.473437    -22.360582
PR03   8163.994281   7745.697889  22937.112673     89.752097
PR04  20432.670095  -3656.055698  14864.525370    212.751029
PR05  21920.031839 -13017.046262  -1257.106129    122.859085
PR07  -8830.221764  -7266.040809 -22760.459051     70.013769
PR08 -20503.050321   3904.955943 -14581.374933    -73.471763
PR09   1022.052471 -25182.238589  -3642.349056    155.442531
PR11 -10693.679286  -6043.966729  22361.171128   -216.297949
PR12  -8906.085787  14765.078212  18811.364346     33.823331
PR13  -2369.308422  24699.743894   5885.671757    -41.769890
PR14   6664.158721  20836.091707 -13125.302916     25.583660
PR15  10887.012344   4595.030479 -22590.623543     84.411526
PR16   8769.757955 -14535.029939 -19020.987037     20.967356
PR17  18059.262477  15436.518403  -9212.756831     38.439037
PR18  22483.521472   9585.905643   7402.223332    113.940403
PR19  16509.956359    281.377949  19446.665383   -256.167915
PR20  -1919.497712 -12859.339037  21953.672488   -104.253733
PR21 -18361.917683 -15481.078649   8645.295749    -56.560754
PR22 -22147.160112  -9574.393413  -8230.952484     95.440956
PR24   2804.895835  13394.104556 -21497.358783    -33.745684
PR25 -17357.433603 -16323.000147   9150.491536     -3.573742
PR26 -20217.900499   3593.138456 -15127.474896    -14.949529
PE02 -18698.435664  16844.716066  15561.845787     81.824192
PE03 -26401.290268   9895.658662   9013.337272    -76.195658
PE04   9418.202586 -17028.338910 -22305.980881   -266.793165
PE05 -27923.369550  -2908.622456  -9379.670580   4694.859920
PE07  12678.227146  14293.784998  22604.293915    -89.962309
PE08 -10065.386215  16832.506434  22164.840458   -183.253989
PE09 -12539.514891 -14204.397985 -22748.407433   -242.226276
PE10  -8594.489401 -25050.180419  13232.765349   -581.946957
PE11 -16159.661042 -24576.761607   3287.072552   3234.755500
PE12   -368.085600 -21781.639156  20038.671214   -794.175312
PE13  15769.483946  24727.037244  -4002.031426    -19.615513
PE15     17.130801  21475.310329 -20358.278031    -71.684276
PE18  17063.086806  13129.579408 -16711.518904     28.538812
PE19  27567.115227  -8339.836421  -6847.871892  -1132.454150
PE21  16799.725400   2960.266790 -24192.991649   -566.080158
PE24  -4633.647784 -22412.868104  18771.247754   -454.001956
PE25 -16650.421615  -3399.787980  24239.210745     -2.819485
PE26  22111.844739  12830.218177  14925.951699    292.799416
PE27   5066.134682  22012.933256 -19121.104170   -209.916393
PE30  -9811.506433  27802.427861  -2534.907345   -695.029058
PE31   9519.216527 -27888.846137   2845.503020    -10.691931
PE33  15878.859271  -5120.058095  24457.893865      3.135461
PE34 -15516.477340   5712.685847 -24550.101317    -80.174021
PE36 -22049.284879 -13483.325479 -14418.861475   -149.662016
PC06  -2643.276706  27127.996391  32263.554477     42.313581
PC07 -17396.145892  32016.070972 -21295.572704   -382.834493
PC08  -7477.120743  40678.292917  -7611.087864    216.319540
PC09   6984.637148  31516.001627  27852.629098   -141.901707
PC10  -8925.197872  31802.945508 -26149.747357    -31.961682
PC11  25578.823204   2284.738284  10975.445977    276.736361
PC12  23021.978587  13957.747291  -7279.932370    844.978335
PC13  -3146.419274  41851.505583  -1679.600066    388.144960
PC14  23305.223755  -8610.664906  12665.524762    865.022800
PC16  -5418.703830  25242.381837  33638.440187   -196.211731
PC19 -22648.731054  15824.917262  -3960.086872   -962.111147
PC20 -21028.519825   1684.808674 -18275.122722     80.864910
PC21   6426.944407  14802.756993  22776.307271   -969.865797
PC22 -11388.650829  21653.001014  13431.227243   -209.263862
PC23   3579.565376 -25298.675803 -11236.258956   -813.865293
PC24  16508.304925  10724.968268 -19786.459474    636.190506
PC25  13511.371791 -11384.309203 -21618.898188    264.847381
PC26  10295.061984  24987.111936  -6899.996624   -212.014398
PC27 -16682.277374 -16949.993782  14578.968246    233.891002
PC28   1131.794766 -16386.343534  22569.929847    176.674114
PC29 -20985.171108   6060.600048 -17368.189380    206.758584
PC30 -26744.374339  -7870.631896   -998.144429     -9.202870
PC32  -6449.763220 -14822.466247 -22738.178736   -537.810129
PC33  22577.187359 -15874.972254   4089.231173   -943.253829
PC34  26935.723225   6920.649048   2423.199723    312.230847
PC35   -424.988767  16520.028721 -22496.854604    493.754824
PC36 -14129.291800  10087.191848  21862.020146   -117.156233
PC37  -9336.683663 -25561.428643   6255.482836   -901.736851
PC38 -11483.106580  37593.645639 -14987.239552    120.292506
PC39  -8614.690311  22945.609061  34371.685328     -5.861283
PC40 -24722.359618  26569.393472 -21668.133961    -45.601660
PC41  11965.650366 -21722.470512 -12744.021892   -871.835448
PC42  20289.210086   -223.473666  19186.741014   -491.438477
PC43  21667.800686  -5473.858509  16719.090023     49.898831
PC44  17136.249076  16452.606612 -14673.738842    305.152671
PC45  -3187.986825  25516.325539  10797.502261    -49.883104
PC46 -16501.089412  -9664.177510  20329.192702   -102.988724
PJ02 -32835.342579  25507.048895  12365.800739     -0.306170
PJ03 -23178.485738  18765.746540 -25150.261137     -9.698854
PJ04 -26460.027547  33048.376222   5439.214005     73.058833
EOF
